INTELSAT 34 (IS-34)     
1 40874U 15039A   21217.85861097 -.00000283  00000-0  00000-0 0  9992
2 40874   0.0493 268.1976 0000742  89.1032 210.9224  1.00270964 21828
EUTELSAT 8 WEST B       
1 40875U 15039B   21217.91002066 -.00000063  00000-0  00000-0 0  9999
2 40875   0.0647 359.9856 0005063 106.4118 167.8613  1.00271473 21845
GSAT-6                  
1 40880U 15041A   21217.89209549 -.00000158  00000-0  00000-0 0  9995
2 40880   0.1137 278.2383 0004471 230.7523 209.3515  1.00271478 21801
INMARSAT 5-F3           
1 40882U 15042A   21217.40304105  .00000052  00000-0  00000-0 0  9991
2 40882   0.0271  87.9977 0000314 155.5976  35.2517  1.00267810 21750
MUOS-4                  
1 40887U 15044A   21217.88469449 -.00000087  00000-0  00000-0 0  9992
2 40887   2.6263 355.8025 0051441   1.5233 350.8409  1.00272166 21743
TJS-1                   
1 40892U 15046A   21217.90057144 -.00000154  00000-0  00000-0 0  9993
2 40892   0.0461 122.3879 0001676 295.9826  15.4286  1.00275115 21741
EXPRESS-AM8             
1 40895U 15048A   21217.79510321 -.00000109  00000-0  00000-0 0  9996
2 40895   0.0085 239.1362 0000210 269.9861  77.6472  1.00271073 21569
BEIDOU 20               
1 40938U 15053A   21217.63035414 -.00000093  00000-0  00000-0 0  9990
2 40938  51.9866 279.5007 0048546 194.0544 164.3077  1.00272542 21537
SKY MUSTER 1 (NBN1A)    
1 40940U 15054A   21217.39518983 -.00000276  00000-0  00000-0 0  9997
2 40940   0.0129  88.1443 0001502  50.4862  98.0488  1.00269496 21447
ARSAT 2                 
1 40941U 15054B   21217.56645785 -.00000222  00000-0  00000-0 0  9999
2 40941   0.0682 271.1543 0001551 220.7456 305.3406  1.00271185 21501
MORELOS 3               
1 40946U 15056A   21217.45020846 -.00000033  00000-0  00000-0 0  9999
2 40946   4.1773 331.0544 0003590 179.1149 213.0017  1.00271297 21473
APSTAR 9                
1 40982U 15059A   21217.96974951 -.00000264  00000-0  00000-0 0  9999
2 40982   0.0279 149.5415 0002001 333.3420 322.9658  1.00272026 21348
TURKSAT 4B              
1 40984U 15060A   21217.89475671  .00000116  00000-0  00000-0 0  9995
2 40984   0.0424 264.8915 0001963 245.7145 176.1692  1.00276204 21297
CHINASAT 2C (ZX 2C)     
1 41021U 15063A   21217.76901515 -.00000321  00000-0  00000-0 0  9997
2 41021   0.0347 253.7788 0001233 217.6180 223.3892  1.00269582 21193
GSAT-15                 
1 41028U 15065A   21217.38594282 -.00000255  00000-0  00000-0 0  9999
2 41028   0.1113 277.5440 0002801 184.0952  84.9298  1.00271373 20996
BADR-7 (ARABSAT-6B)     
1 41029U 15065B   21217.87492406  .00000147  00000-0  00000-0 0  9998
2 41029   0.0576 257.2035 0004975 317.1986  81.2062  1.00269115 20950
LAOSAT 1                
1 41034U 15067A   21217.82354212 -.00000341  00000-0  00000-0 0  9990
2 41034   0.0145 142.1832 0000888 325.3686 271.9968  1.00274764 21042
TELSTAR 12V             
1 41036U 15068A   21217.86672389 -.00000116  00000-0  00000-0 0  9995
2 41036   0.0158  74.7102 0001599  67.8055 109.1216  1.00272162 20818
CHINASAT 1C (ZX 1C)     
1 41103U 15073A   21217.95771096 -.00000150  00000-0  00000-0 0  9999
2 41103   2.6128  88.4571 0002107  20.9548 271.4761  1.00272120 20848
ELEKTRO-L 2             
1 41105U 15074A   21217.00188493 -.00000115  00000-0  00000-0 0  9992
2 41105   2.1992  91.9455 0002761  60.0055 147.9247  1.00270248 20696
COSMOS 2513             
1 41121U 15075A   21217.35813234 -.00000135  00000-0  00000-0 0  9999
2 41121   0.0519 114.9647 0002342  32.0600  16.2625  1.00271182 20714
EXPRESS-AMU1            
1 41191U 15082A   21217.87693049  .00000158  00000-0  00000-0 0  9995
2 41191   0.0159  85.1375 0002936  71.4667 149.8560  1.00276473 20468
GAOFEN 4                
1 41194U 15083A   21217.82242418 -.00000333  00000-0  00000-0 0  9990
2 41194   0.0441 243.4077 0001508 334.3839 138.5212  1.00277258 20707
BELINTERSAT-1           
1 41238U 16001A   21217.87998375  .00000109  00000-0  00000-0 0  9995
2 41238   0.0032 269.5799 0001510 203.1902 210.1592  1.00274114 20446
IRNSS-1E                
1 41241U 16003A   21216.57341003 -.00000316  00000-0  00000-0 0  9998
2 41241  29.2763  89.5956 0019410 176.2242   5.7296  1.00273913 20258
EUTELSAT 9B             
1 41310U 16005A   21217.87152186  .00000064  00000-0  00000-0 0  9992
2 41310   0.0574  77.6743 0002889 160.3110  39.3623  1.00272407 20304
SES-9                   
1 41380U 16013A   21217.60423098 -.00000343  00000-0  00000-0 0  9993
2 41380   0.0563 269.3225 0001659 203.9383 166.9206  1.00271661 19622
EUTELSAT 65 WEST A      
1 41382U 16014A   21217.85669177 -.00000274  00000-0  00000-0 0  9996
2 41382   0.0493   0.6203 0001960 137.5904  59.6088  1.00274066 19734
IRNSS-1F                
1 41384U 16015A   21217.87614538  .00000160  00000-0  00000-0 0  9995
2 41384   1.9537 183.3783 0018883 189.0519 290.1255  1.00266983 19853
BEIDOU IGSO-6           
1 41434U 16021A   21217.52929645 -.00000123  00000-0  00000-0 0  9998
2 41434  57.6274  56.1254 0038454 211.0538 332.1296  1.00259722 19662
IRNSS-1G                
1 41469U 16027A   21217.89551175 -.00000334  00000-0  00000-0 0  9995
2 41469   1.9267 186.9721 0004950 282.2017 297.3551  1.00275488 19361
JCSAT-2B                
1 41471U 16028A   21217.90039698 -.00000163  00000-0  00000-0 0  9992
2 41471   0.0184  85.9297 0001793  52.3040 294.5604  1.00270715 19302
THAICOM 8               
1 41552U 16031A   21217.88539238 -.00000119  00000-0  00000-0 0  9999
2 41552   0.0574  67.9416 0003212  23.2137 260.7683  1.00270423 18903
INTELSAT 31 (IS-31)     
1 41581U 16035A   21217.53652597 -.00000147  00000-0  00000-0 0  9992
2 41581   0.0149 117.4763 0001474 117.9208 176.9855  1.00268223 18787
BEIDOU-2 G7             
1 41586U 16037A   21217.89176060 -.00000353  00000-0  00000-0 0  9993
2 41586   1.8016  68.2033 0008196  19.3603 298.5992  1.00268785 18976
ABS-2A (MONGOLSAT-1)    
1 41588U 16038A   21217.38219168 -.00000081  00000-0  00000-0 0  9995
2 41588   0.0101  74.1366 0001910 326.9532 125.3459  1.00272291 18897
EUTELSAT 117 WEST B     
1 41589U 16038B   21217.36864219 -.00000009  00000-0  00000-0 0  9997
2 41589   0.0078 234.0612 0000423 222.5512 233.2199  1.00272502 18850
BRISAT                  
1 41591U 16039A   21217.68440081 -.00000194  00000-0  00000-0 0  9998
2 41591   0.0176  82.6159 0001984  57.6495 211.0670  1.00270466 18805
ECHOSTAR 18             
1 41592U 16039B   21217.49858941 -.00000279  00000-0  00000-0 0  9990
2 41592   0.0172  83.6686 0001326  57.7877 290.9277  1.00271342 18817
MUOS-5                  
1 41622U 16041A   21217.45782522 -.00000121  00000-0  00000-0 0  9990
2 41622   6.3401 303.5219 0203286 227.2135 203.3019  1.00272011 19278
TIANTONG-1 1            
1 41725U 16048A   21217.88992865 -.00000312  00000-0  00000-0 0  9993
2 41725   2.4921 345.3058 0002118 124.1928 266.9273  1.00274665 18461
JCSAT-16                
1 41729U 16050A   21217.51438117 -.00000281  00000-0  00000-0 0  9990
2 41729   0.0791  93.5088 0000549 166.9180  15.1214  1.00420996 18255
USA 271                 
1 41745U 16052B   21211.43428510 -.00000364  00000-0  00000+0 0  9992
2 41745   1.0455  95.9289 0000469 124.7096   6.5498  1.00082083   866
INTELSAT 36 (IS-36)     
1 41747U 16053A   21217.88338595 -.00000022  00000-0  00000-0 0  9995
2 41747   0.0090  41.9834 0003071 328.2885 330.8689  1.00271636 18158
INTELSAT 33E (IS-33E)   
1 41748U 16053B   21217.90263939  .00000051  00000-0  00000-0 0  9999
2 41748   0.0270 347.6484 0001812 163.9479 187.9924  1.00273108 18430
INSAT-3DR               
1 41752U 16054A   21217.88452003 -.00000075  00000-0  00000-0 0  9991
2 41752   0.1168  99.2338 0010140 165.3792  82.4378  1.00271786 17990
GSAT-18                 
1 41793U 16060A   21217.88443278 -.00000075  00000-0  00000-0 0  9997
2 41793   0.0901  98.4906 0002184 332.9232 275.6048  1.00272171 17721
SKY MUSTER 2 (NBN1B)    
1 41794U 16060B   21217.63879492 -.00000243  00000-0  00000-0 0  9999
2 41794   0.0195  97.1005 0001416  48.3275 183.7286  1.00268174 17704
HIMAWARI-9              
1 41836U 16064A   21217.89777990 -.00000273  00000-0  00000-0 0  9991
2 41836   0.0459 267.2736 0000154 237.6341 273.6710  1.00270422 17373
SHIJIAN-17 (SJ-17)      
1 41838U 16065A   21217.89315639 -.00000362  00000-0  00000-0 0  9991
2 41838   1.2401  92.6781 0003191  30.6912 270.3471  1.00273076 17392
GOES 16                 
1 41866U 16071A   21217.56759191 -.00000245  00000-0  00000-0 0  9998
2 41866   0.1080 101.4519 0001139  75.8237 266.1589  1.00270810 17298
TIANLIAN 1-04           
1 41869U 16072A   21217.80529177  .00000034  00000-0  00000-0 0  9993
2 41869   0.1808 263.3044 0025336 206.5304 311.4983  1.00275229 17508
WGS F8 (USA 272)        
1 41879U 16075A   21217.75602150 -.00000200  00000-0  00000-0 0  9990
2 41879   0.0165  66.2475 0000336  48.1009 262.1372  1.00271769 17012
FENGYUN 4A              
1 41882U 16077A   21216.59856749 -.00000325  00000-0  00000+0 0  9999
2 41882   0.0872  83.5107 0002070  52.2783 137.5669  1.00264074 17157
ECHOSTAR 19             
1 41893U 16079A   21217.63502528 -.00000136  00000-0  00000+0 0  9992
2 41893   0.0144  84.4600 0001268  65.7300 295.7187  1.00271327 16926
JCSAT-15                
1 41903U 16082A   21217.89167337 -.00000349  00000-0  00000-0 0  9998
2 41903   0.0168  85.4793 0001226  60.0558 240.1795  1.00270991 16942
STAR ONE D1             
1 41904U 16082B   21217.56584719 -.00000208  00000-0  00000-0 0  9994
2 41904   0.0107 272.7110 0002669 225.0633 296.2402  1.00269420 16952
TJS-2                   
1 41911U 17001A   21217.88294977 -.00000003  00000-0  00000-0 0  9996
2 41911   0.4270 282.9143 0005553 255.8947 160.1472  1.00271177 16923
SBIRS GEO-4 (USA 273)   
1 41937U 17004A   21217.83767434  .00000137  00000-0  00000-0 0  9992
2 41937   2.9600 314.0141 0002128 186.8516 315.8867  1.00272537 16793
HISPASAT 36W-1          
1 41942U 17006A   21217.86253657 -.00000242  00000-0  00000-0 0  9998
2 41942   0.0107   3.6789 0001033 130.1507  95.3273  1.00273380 16423
